NORAD_CAT_ID,OBJECT_NAME,OBJECT_TYPE,EPOCH,MEAN_MOTION,ECCENTRICITY,INCLINATION,RA_OF_ASC_NODE,ARG_OF_PERICENTER,MEAN_ANOMALY,BSTAR,MEAN_MOTION_DOT,MEAN_MOTION_DDOT,TLE_LINE0,TLE_LINE1,TLE_LINE2,SEMIMAJOR_AXIS,PERIOD,APOGEE,PERIGEE,DECAYED
54084.0,STARLINK-5183,PAYLOAD,2022-11-17 06:00:00,15.73270315,0.0003683,53.2156,11.101,6.2771,239.1464,-0.001063,-0.00147735,0.0,0 STARLINK-5183,1 54084U 22136AK  22321.25001157 -.00147735  00000-0 -10630-2 0  9997,2 54084  53.2156  11.1010 0003683   6.2771 239.1464 15.73270315  4863,6727.695,91.529,352.038,347.082,0.0
54084.0,STARLINK-5183,PAYLOAD,2022-11-17 14:00:01,15.73131012,0.0004006,53.2151,9.4531,3.7146,330.662,0.00056971,0.00079887,0.0,0 STARLINK-5183,1 54084U 22136AK  22321.58334491  .00079887  00000-0  56971-3 0  9992,2 54084  53.2151   9.4531 0004006   3.7146 330.6620 15.73131012  4911,6728.092,91.537,352.652,347.26199999999994,0.0
54084.0,STARLINK-5183,PAYLOAD,2022-11-17 22:00:00,15.731682199999998,0.0003736,53.215,7.8017,3.7083,59.5543,0.00049286,0.00069044,0.0,0 STARLINK-5183,1 54084U 22136AK  22321.91667824  .00069044  00000-0  49286-3 0  9993,2 54084  53.2150   7.8017 0003736   3.7083  59.5543 15.73168220  1302,6727.986,91.535,352.36400000000015,347.337,0.0
54084.0,STARLINK-5183,PAYLOAD,2022-11-18 06:00:00,15.73246125,0.0003773,53.2152,6.1526,3.9138,148.2625,-0.00053475,-0.00075187,0.0,0 STARLINK-5183,1 54084U 22136AK  22322.25001157 -.00075187  00000-0 -53475-3 0  9994,2 54084  53.2152   6.1526 0003773   3.9138 148.2625 15.73246125  5015,6727.764,91.53,352.167,347.09,0.0
54084.0,STARLINK-5183,PAYLOAD,2022-11-18 14:00:01,15.73164786,0.0004066,53.2152,4.5047,2.1588,238.9715,0.00072377,0.00102077,0.0,0 STARLINK-5183,1 54084U 22136AK  22322.58334491  .00102077  00000-0  72377-3 0  9999,2 54084  53.2152   4.5047 0004066   2.1588 238.9715 15.73164786  1308,6727.996,91.535,352.596,347.125,0.0
54084.0,STARLINK-5183,PAYLOAD,2022-11-18 22:00:00,15.73237133,0.0003846,53.2155,2.8531,1.5736,328.4914,-0.00028699,-0.00040789,0.0,0 STARLINK-5183,1 54084U 22136AK  22322.91667824 -.00040789  00000-0 -28699-3 0  9996,2 54084  53.2155   2.8531 0003846   1.5736 328.4914 15.73237133  1306,6727.7890000000025,91.531,352.242,347.06699999999995,0.0
54084.0,STARLINK-5183,PAYLOAD,2022-11-19 14:00:01,15.73163651,0.0004249,53.2149,359.5558,6.9688,140.9966,0.00070997,0.00100094,0.0,0 STARLINK-5183,1 54084U 22136AK  22323.58334491  .00100094  00000-0  70997-3 0  9993,2 54084  53.2149 359.5558 0004249   6.9688 140.9966 15.73163651  1300,6727.999,91.535,352.723,347.005,0.0
54084.0,STARLINK-5183,PAYLOAD,2022-11-19 22:00:00,15.73227377,0.0003977,53.2149,357.9043,6.6706,230.2233,-0.00017103,-0.00024597,0.0,0 STARLINK-5183,1 54084U 22136AK  22323.91667824 -.00024597  00000-0 -17103-3 0  9994,2 54084  53.2149 357.9043 0003977   6.6706 230.2233 15.73227377  1302,6727.816999999999,91.532,352.358,347.006,0.0
54084.0,STARLINK-5183,PAYLOAD,2022-11-20 14:00:01,15.73210405,0.0004257,53.2148,354.6073,3.9355,50.8589,-6.9411e-05,-0.00010364,0.0,0 STARLINK-5183,1 54084U 22136AK  22324.58334491 -.00010364  00000-0 -69411-4 0  9996,2 54084  53.2148 354.6073 0004257   3.9355  50.8589 15.73210405  1304,6727.866,91.533,352.595,346.866,0.0
54084.0,STARLINK-5183,PAYLOAD,2022-11-20 22:00:00,15.73190417,0.0004048,53.2151,352.9556,1.9124,141.825,-0.00012448,-0.00018058,0.0,0 STARLINK-5183,1 54084U 22136AK  22324.91667824 -.00018058  00000-0 -12448-3 0  9997,2 54084  53.2151 352.9556 0004048   1.9124 141.8250 15.73190417  1301,6727.922,91.534,352.511,347.064,0.0
54084.0,STARLINK-5183,PAYLOAD,2022-11-21 08:00:01,15.73200207,0.0004243,53.2149,350.895,2.1842,342.7031,-0.00040892,-0.00057656,0.0,0 STARLINK-5183,1 54084U 22136AK  22325.33334491 -.00057656  00000-0 -40892-3 0  9996,2 54084  53.2149 350.8950 0004243   2.1842 342.7031 15.73200207  5504,6727.895,91.533,352.61400000000015,346.905,0.0
54084.0,STARLINK-5183,PAYLOAD,2022-11-21 14:00:01,15.73147319,0.0004401,53.2144,349.6584,0.8728,320.6978,0.00055849,0.00078349,0.0,0 STARLINK-5183,1 54084U 22136AK  22325.58334491  .00078349  00000-0  55849-3 0  9991,2 54084  53.2144 349.6584 0004401   0.8728 320.6978 15.73147319  1305,6728.045,91.536,352.871,346.949,0.0
54084.0,STARLINK-5183,PAYLOAD,2022-11-21 22:00:00,15.73176867,0.0004087,53.2144,348.0068,1.6342,48.843,0.00063598,0.00089533,0.0,0 STARLINK-5183,1 54084U 22136AK  22325.91667824  .00089533  00000-0  63598-3 0  9994,2 54084  53.2144 348.0068 0004087   1.6342  48.8430 15.73176867  5593,6727.9609999999975,91.535,352.576,347.076,0.0
54084.0,STARLINK-5183,PAYLOAD,2022-11-22 06:00:02,15.73243129,0.0004202,53.2145,346.3584,1.0229,138.4609,-0.0003543,-0.00050172,0.0,0 STARLINK-5183,1 54084U 22136AK  22326.25002315 -.00050172  00000-0 -35430-3 0  9993,2 54084  53.2145 346.3584 0004202   1.0229 138.4609 15.73243129  5641,6727.772,91.531,352.464,346.81,0.0
54084.0,STARLINK-5183,PAYLOAD,2022-11-22 14:00:01,15.73228003,0.0004326,53.2143,344.7095,359.4502,228.9669,-0.00035562,-0.00050326,0.0,0 STARLINK-5183,1 54084U 22136AK  22326.58335648 -.00050326  00000-0 -35562-3 0  9994,2 54084  53.2143 344.7095 0004326 359.4502 228.9669 15.73228003  1303,6727.815,91.532,352.591,346.77,0.0
54084.0,STARLINK-5183,PAYLOAD,2022-11-22 22:00:00,15.73172041,0.0004093999999999,53.2146,343.0577,0.4024,316.8994,0.000399,0.00055701,0.0,0 STARLINK-5183,1 54084U 22136AK  22326.91667824  .00055701  00000-0  39900-3 0  9995,2 54084  53.2146 343.0577 0004094   0.4024 316.8994 15.73172041  1305,6727.975,91.535,352.594,347.085,0.0
54084.0,STARLINK-5183,PAYLOAD,2022-11-23 08:00:01,15.73173064,0.0004379,53.2146,340.9974,5.9186,152.5323,0.00015325,0.00020922,0.0,0 STARLINK-5183,1 54084U 22136AK  22327.33334491  .00020922  00000-0  15325-3 0  9995,2 54084  53.2146 340.9974 0004379   5.9186 152.5323 15.73173064  5814,6727.972,91.535,352.783,346.891,0.0
54084.0,STARLINK-5183,PAYLOAD,2022-11-23 14:00:01,15.7318457,0.0004427,53.2141,339.7603,5.9845,129.1373,0.00031309,0.00043536,0.0,0 STARLINK-5183,1 54084U 22136AK  22327.58334491  .00043536  00000-0  31309-3 0  9998,2 54084  53.2141 339.7603 0004427   5.9845 129.1373 15.73184570  1309,6727.939,91.534,352.783,346.826,0.0
54084.0,STARLINK-5183,PAYLOAD,2022-11-23 22:00:00,15.73216356,0.0004115,53.2141,338.1087,5.9458,218.1108,-0.00011663,-0.0001698,0.0,0 STARLINK-5183,1 54084U 22136AK  22327.91667824 -.00016980  00000-0 -11663-3 0  9990,2 54084  53.2141 338.1087 0004115   5.9458 218.1108 15.73216356  1305,6727.849,91.532,352.482,346.945,0.0
54084.0,STARLINK-5183,PAYLOAD,2022-11-24 14:00:01,15.7325476,0.00044,53.2142,334.8112,4.757,37.1709,-0.00033048,-0.00046885,0.0,0 STARLINK-5183,1 54084U 22136AK  22328.58334491 -.00046885  00000-0 -33048-3 0  9993,2 54084  53.2142 334.8112 0004400   4.7570  37.1709 15.73254760  6017,6727.739000000001,91.53,352.564,346.644,0.0
54084.0,STARLINK-5183,PAYLOAD,2022-11-24 22:00:00,15.73186283,0.0004062,53.2146,333.1593,4.2802,126.636,0.00024173,0.0003343,0.0,0 STARLINK-5183,1 54084U 22136AK  22328.91667824  .00033430  00000-0  24173-3 0  9998,2 54084  53.2146 333.1593 0004062   4.2802 126.6360 15.73186283  1301,6727.934,91.534,352.532,347.066,0.0
54084.0,STARLINK-5183,PAYLOAD,2022-11-25 14:00:01,15.73210745,0.0004347,53.2143,329.8617,3.5746,305.1902,0.0002694,0.00037388,0.0,0 STARLINK-5183,1 54084U 22136AK  22329.58334491  .00037388  00000-0  26940-3 0  9993,2 54084  53.2143 329.8617 0004347   3.5746 305.1902 15.73210745  6179,6727.865,91.533,352.654,346.805,0.0
54084.0,STARLINK-5183,PAYLOAD,2022-11-25 22:00:00,15.73244781,0.0004031,53.2145,328.2104,3.7798,33.9507,-4.8698e-05,-7.47e-05,0.0,0 STARLINK-5183,1 54084U 22136AK  22329.91667824 -.00007470  00000-0 -48698-4 0  9995,2 54084  53.2145 328.2104 0004031   3.7798  33.9507 15.73244781  1308,6727.768,91.531,352.344,346.921,0.0
54084.0,STARLINK-5183,PAYLOAD,2022-11-26 14:00:01,15.73254698,0.0004138999999999,53.2146,324.9127,0.6308,215.0559,-0.00053678,-0.00075504,0.0,0 STARLINK-5183,1 54084U 22136AK  22330.58334491 -.00075504  00000-0 -53678-3 0  9997,2 54084  53.2146 324.9127 0004139   0.6308 215.0559 15.73254698  6335,6727.739000000001,91.53,352.389,346.82,0.0
54084.0,STARLINK-5183,PAYLOAD,2022-11-26 22:00:00,15.7318074,0.0003895,53.215,323.2611,1.6061,303.0533,-0.00012239,-0.00017758,0.0,0 STARLINK-5183,1 54084U 22136AK  22330.91667824 -.00017758  00000-0 -12239-3 0  9998,2 54084  53.2150 323.2611 0003895   1.6061 303.0533 15.73180740  1303,6727.95,91.534,352.436,347.195,0.0
54084.0,STARLINK-5183,PAYLOAD,2022-11-27 14:00:01,15.73155334,0.0004153,53.2148,319.9638,2.5625,119.8635,0.0001492,0.00020335,0.0,0 STARLINK-5183,1 54084U 22136AK  22331.58334491  .00020335  00000-0  14920-3 0  9995,2 54084  53.2148 319.9638 0004153   2.5625 119.8635 15.73155334  6486,6728.023,91.536,352.682,347.093,0.0
54084.0,STARLINK-5183,PAYLOAD,2022-11-27 22:00:00,15.73178194,0.000386,53.2148,318.3129,3.2963,208.0088,0.00021908,0.00030216,0.0,0 STARLINK-5183,1 54084U 22136AK  22331.91667824  .00030216  00000-0  21908-3 0  9994,2 54084  53.2148 318.3129 0003860   3.2963 208.0088 15.73178194  1309,6727.956999999999,91.534,352.4190000000001,347.225,0.0
54084.0,STARLINK-5183,PAYLOAD,2022-11-28 16:00:00,15.73221743,0.0004038,53.2151,314.6025,2.3241,139.0519,0.00022246,0.00030753,0.0,0 STARLINK-5183,1 54084U 22136AK  22332.66667824  .00030753  00000-0  22246-3 0  9999,2 54084  53.2151 314.6025 0004038   2.3241 139.0519 15.73221743  6658,6727.833000000001,91.532,352.415,346.981,0.0
54084.0,STARLINK-5183,PAYLOAD,2022-11-28 22:00:01,15.73252629,0.0003912,53.2152,313.3643,3.0210000000000004,115.1341,2.6311e-05,3.079e-05,0.0,0 STARLINK-5183,1 54084U 22136AK  22332.91668981  .00003079  00000-0  26311-4 0  9991,2 54084  53.2152 313.3643 0003912   3.0210 115.1341 15.73252629  1307,6727.745,91.53,352.242,346.978,0.0
